CCSDS_OMM_VERS = 2.0
CREATION_DATE  = 
ORIGINATOR     = 

OBJECT_NAME    = SL-3 R/B
OBJECT_ID      = 1982-079B
CENTER_NAME    = EARTH
REF_FRAME      = TEME
TIME_SYSTEM    = UTC
MEAN_ELEMENT_THEORY = SGP/SGP4

EPOCH          = 2026-03-09T14:25:49.075680
MEAN_MOTION    = 15.24799288
ECCENTRICITY   = .00250538
INCLINATION    = 81.1482
RA_OF_ASC_NODE = 193.1813
ARG_OF_PERICENTER = 165.1589
MEAN_ANOMALY   = 195.0386

EPHEMERIS_TYPE = 0
CLASSIFICATION_TYPE = U
NORAD_CAT_ID   = 13403
ELEMENT_SET_NO = 999
REV_AT_EPOCH   = 37768
BSTAR          = .32626595E-3
MEAN_MOTION_DOT = .8191E-4
MEAN_MOTION_DDOT = 0

CCSDS_OMM_VERS = 2.0
CREATION_DATE  = 
ORIGINATOR     = 

OBJECT_NAME    = SL-14 R/B
OBJECT_ID      = 1982-092B
CENTER_NAME    = EARTH
REF_FRAME      = TEME
TIME_SYSTEM    = UTC
MEAN_ELEMENT_THEORY = SGP/SGP4

EPOCH          = 2026-03-09T15:41:25.512864
MEAN_MOTION    = 14.86666326
ECCENTRICITY   = .00190021
INCLINATION    = 82.5696
RA_OF_ASC_NODE = 141.4332
ARG_OF_PERICENTER = 303.6909
MEAN_ANOMALY   = 172.1700

EPHEMERIS_TYPE = 0
CLASSIFICATION_TYPE = U
NORAD_CAT_ID   = 13553
ELEMENT_SET_NO = 999
REV_AT_EPOCH   = 32892
BSTAR          = .61867506E-4
MEAN_MOTION_DOT = .575E-5
MEAN_MOTION_DDOT = 0

CCSDS_OMM_VERS = 2.0
CREATION_DATE  = 
ORIGINATOR     = 

OBJECT_NAME    = SL-3 R/B
OBJECT_ID      = 1983-010B
CENTER_NAME    = EARTH
REF_FRAME      = TEME
TIME_SYSTEM    = UTC
MEAN_ELEMENT_THEORY = SGP/SGP4

EPOCH          = 2026-03-09T07:23:33.081792
MEAN_MOTION    = 15.46341007
ECCENTRICITY   = .00180551
INCLINATION    = 81.1061
RA_OF_ASC_NODE = 2.7152
ARG_OF_PERICENTER = 52.3179
MEAN_ANOMALY   = 307.9700

EPHEMERIS_TYPE = 0
CLASSIFICATION_TYPE = U
NORAD_CAT_ID   = 13819
ELEMENT_SET_NO = 999
REV_AT_EPOCH   = 35788
BSTAR          = .38268152E-3
MEAN_MOTION_DOT = .19052E-3
MEAN_MOTION_DDOT = 0

CCSDS_OMM_VERS = 2.0
CREATION_DATE  = 
ORIGINATOR     = 

OBJECT_NAME    = SL-3 R/B
OBJECT_ID      = 1983-075B
CENTER_NAME    = EARTH
REF_FRAME      = TEME
TIME_SYSTEM    = UTC
MEAN_ELEMENT_THEORY = SGP/SGP4

EPOCH          = 2026-03-09T14:55:45.887232
MEAN_MOTION    = 15.38415606
ECCENTRICITY   = .00201179
INCLINATION    = 97.6146
RA_OF_ASC_NODE = 73.1966
ARG_OF_PERICENTER = 226.1576
MEAN_ANOMALY   = 133.8007

EPHEMERIS_TYPE = 0
CLASSIFICATION_TYPE = U
NORAD_CAT_ID   = 14208
ELEMENT_SET_NO = 999
REV_AT_EPOCH   = 33014
BSTAR          = .33944014E-3
MEAN_MOTION_DOT = .12866E-3
MEAN_MOTION_DDOT = 0

CCSDS_OMM_VERS = 2.0
CREATION_DATE  = 
ORIGINATOR     = 

OBJECT_NAME    = COSMOS 1536
OBJECT_ID      = 1984-013A
CENTER_NAME    = EARTH
REF_FRAME      = TEME
TIME_SYSTEM    = UTC
MEAN_ELEMENT_THEORY = SGP/SGP4

EPOCH          = 2026-03-09T12:33:00.332064
MEAN_MOTION    = 15.23821576
ECCENTRICITY   = .00124739
INCLINATION    = 82.5428
RA_OF_ASC_NODE = 108.0163
ARG_OF_PERICENTER = 284.1309
MEAN_ANOMALY   = 75.8542

EPHEMERIS_TYPE = 0
CLASSIFICATION_TYPE = U
NORAD_CAT_ID   = 14699
ELEMENT_SET_NO = 999
REV_AT_EPOCH   = 27259
BSTAR          = .29910457E-3
MEAN_MOTION_DOT = .7251E-4
MEAN_MOTION_DDOT = 0

CCSDS_OMM_VERS = 2.0
CREATION_DATE  = 
ORIGINATOR     = 

OBJECT_NAME    = SL-14 R/B
OBJECT_ID      = 1984-027B
CENTER_NAME    = EARTH
REF_FRAME      = TEME
TIME_SYSTEM    = UTC
MEAN_ELEMENT_THEORY = SGP/SGP4

EPOCH          = 2026-03-09T13:24:11.904768
MEAN_MOTION    = 14.85976300
ECCENTRICITY   = .00173434
INCLINATION    = 82.5386
RA_OF_ASC_NODE = 245.1358
ARG_OF_PERICENTER = 338.4430
MEAN_ANOMALY   = 21.6054

EPHEMERIS_TYPE = 0
CLASSIFICATION_TYPE = U
NORAD_CAT_ID   = 14820
ELEMENT_SET_NO = 999
REV_AT_EPOCH   = 24761
BSTAR          = .72199897E-4
MEAN_MOTION_DOT = .656E-5
MEAN_MOTION_DDOT = 0

CCSDS_OMM_VERS = 2.0
CREATION_DATE  = 
ORIGINATOR     = 

OBJECT_NAME    = SL-8 R/B
OBJECT_ID      = 1985-006B
CENTER_NAME    = EARTH
REF_FRAME      = TEME
TIME_SYSTEM    = UTC
MEAN_ELEMENT_THEORY = SGP/SGP4

EPOCH          = 2026-03-09T15:49:18.285024
MEAN_MOTION    = 14.37782793
ECCENTRICITY   = .0018446
INCLINATION    = 74.0433
RA_OF_ASC_NODE = 261.2045
ARG_OF_PERICENTER = 179.0399
MEAN_ANOMALY   = 248.6602

EPHEMERIS_TYPE = 0
CLASSIFICATION_TYPE = U
NORAD_CAT_ID   = 15483
ELEMENT_SET_NO = 999
REV_AT_EPOCH   = 15402
BSTAR          = .12579982E-3
MEAN_MOTION_DOT = .353E-5
MEAN_MOTION_DDOT = 0

CCSDS_OMM_VERS = 2.0
CREATION_DATE  = 
ORIGINATOR     = 

OBJECT_NAME    = SL-12 R/B(2)
OBJECT_ID      = 1985-042D
CENTER_NAME    = EARTH
REF_FRAME      = TEME
TIME_SYSTEM    = UTC
MEAN_ELEMENT_THEORY = SGP/SGP4

EPOCH          = 2026-03-09T12:01:15.473856
MEAN_MOTION    = 14.21982311
ECCENTRICITY   = .00332559
INCLINATION    = 71.1062
RA_OF_ASC_NODE = 88.1277
ARG_OF_PERICENTER = 128.4726
MEAN_ANOMALY   = 23.4074

EPHEMERIS_TYPE = 0
CLASSIFICATION_TYPE = U
NORAD_CAT_ID   = 15772
ELEMENT_SET_NO = 999
REV_AT_EPOCH   = 11436
BSTAR          = .38313498E-4
MEAN_MOTION_DOT = .38E-6
MEAN_MOTION_DDOT = 0

CCSDS_OMM_VERS = 2.0
CREATION_DATE  = 
ORIGINATOR     = 

OBJECT_NAME    = SL-14 R/B
OBJECT_ID      = 1985-069B
CENTER_NAME    = EARTH
REF_FRAME      = TEME
TIME_SYSTEM    = UTC
MEAN_ELEMENT_THEORY = SGP/SGP4

EPOCH          = 2026-03-09T08:11:32.112960
MEAN_MOTION    = 14.86432515
ECCENTRICITY   = .00184393
INCLINATION    = 82.5285
RA_OF_ASC_NODE = 25.2603
ARG_OF_PERICENTER = 188.8548
MEAN_ANOMALY   = 171.2347

EPHEMERIS_TYPE = 0
CLASSIFICATION_TYPE = U
NORAD_CAT_ID   = 15945
ELEMENT_SET_NO = 999
REV_AT_EPOCH   = 17278
BSTAR          = .7682031E-4
MEAN_MOTION_DOT = .704E-5
MEAN_MOTION_DDOT = 0

CCSDS_OMM_VERS = 2.0
CREATION_DATE  = 
ORIGINATOR     = 

OBJECT_NAME    = SL-16 R/B
OBJECT_ID      = 1985-097B
CENTER_NAME    = EARTH
REF_FRAME      = TEME
TIME_SYSTEM    = UTC
MEAN_ELEMENT_THEORY = SGP/SGP4

EPOCH          = 2026-03-09T15:26:02.448096
MEAN_MOTION    = 14.16598844
ECCENTRICITY   = .00099223
INCLINATION    = 71.0028
RA_OF_ASC_NODE = 140.6527
ARG_OF_PERICENTER = 259.8779
MEAN_ANOMALY   = 209.8797

EPHEMERIS_TYPE = 0
CLASSIFICATION_TYPE = U
NORAD_CAT_ID   = 16182
ELEMENT_SET_NO = 999
REV_AT_EPOCH   = 8722
BSTAR          = -.73507103E-4
MEAN_MOTION_DOT = -.195E-5
MEAN_MOTION_DDOT = 0

CCSDS_OMM_VERS = 2.0
CREATION_DATE  = 
ORIGINATOR     = 

OBJECT_NAME    = SL-14 R/B
OBJECT_ID      = 1986-006B
CENTER_NAME    = EARTH
REF_FRAME      = TEME
TIME_SYSTEM    = UTC
MEAN_ELEMENT_THEORY = SGP/SGP4

EPOCH          = 2026-03-09T14:06:16.764192
MEAN_MOTION    = 14.86814645
ECCENTRICITY   = .00750524
INCLINATION    = 82.5233
RA_OF_ASC_NODE = 259.8333
ARG_OF_PERICENTER = 273.1411
MEAN_ANOMALY   = 86.1221

EPHEMERIS_TYPE = 0
CLASSIFICATION_TYPE = U
NORAD_CAT_ID   = 16496
ELEMENT_SET_NO = 999
REV_AT_EPOCH   = 14919
BSTAR          = .83606906E-4
MEAN_MOTION_DOT = .809E-5
MEAN_MOTION_DDOT = 0

CCSDS_OMM_VERS = 2.0
CREATION_DATE  = 
ORIGINATOR     = 

OBJECT_NAME    = COSMOS 1743
OBJECT_ID      = 1986-034A
CENTER_NAME    = EARTH
REF_FRAME      = TEME
TIME_SYSTEM    = UTC
MEAN_ELEMENT_THEORY = SGP/SGP4

EPOCH          = 2026-03-09T10:47:12.341760
MEAN_MOTION    = 15.58526486
ECCENTRICITY   = .0001656
INCLINATION    = 82.5296
RA_OF_ASC_NODE = 74.0830
ARG_OF_PERICENTER = 296.6457
MEAN_ANOMALY   = 63.4629

EPHEMERIS_TYPE = 0
CLASSIFICATION_TYPE = U
NORAD_CAT_ID   = 16719
ELEMENT_SET_NO = 999
REV_AT_EPOCH   = 18021
BSTAR          = .44928259E-3
MEAN_MOTION_DOT = .34437E-3
MEAN_MOTION_DDOT = 0

